AMOS-4                  
1 39237U 13045A   26170.80974330  .00000002  00000+0  00000+0 0  9997
2 39237   0.0123 296.8016 0002587 124.8554 202.8907  1.00272190 46982
AEHF-3 (USA 246)        
1 39256U 13050A   26170.72588682  .00000022  00000+0  00000+0 0  9998
2 39256   5.2994  67.1610 0087846 188.0170 149.8176  1.00273228 45678
ASTRA 2E                
1 39285U 13056A   26170.78778771  .00000145  00000+0  00000+0 0  9998
2 39285   0.0726 317.0659 0002780 144.8489 118.2106  1.00273813 46442
FM-6                    
1 39360U 13058A   26170.72736014  .00000000  00000+0  00000+0 0  9992
2 39360   0.0356  52.4724 0001710 122.4129 238.6158  1.00270821 46094
RADUGA-1M 3             
1 39375U 13062A   26169.79836442  .00000144  00000+0  00000+0 0  9993
2 39375   5.9627  72.3351 0001803 267.8367 249.2637  1.00273348 46124
SES-8                   
1 39460U 13071A   26170.34141693 -.00000276  00000+0  00000+0 0  9995
2 39460   0.0203 292.6569 0002683 154.9053  37.9119  1.00272140 44458
INMARSAT 5-F1           
1 39476U 13073A   26170.76182002  .00000022  00000+0  00000+0 0  9997
2 39476   0.0163  25.3416 0000611 307.9135 271.6033  1.00271381 45608
TKSAT-1 (TUPAC KATARI)  
1 39481U 13075A   26170.80433243 -.00000200  00000+0  00000+0 0  9995
2 39481   0.0272 185.4362 0002553 254.4824  30.4473  1.00273227 45634
EXPRESS-AM5             
1 39487U 13077A   26170.27912113 -.00000286  00000+0  00000+0 0  9996
2 39487   0.0150 290.7568 0000246  50.0930 167.1627  1.00270514 46386
GSAT-14                 
1 39498U 14001A   26170.33732833 -.00000083  00000+0  00000+0 0  9997
2 39498   0.0422  95.8579 0000856 174.4907 192.6333  1.00271213 45404
THAICOM 6               
1 39500U 14002A   26170.76591403 -.00000127  00000+0  00000+0 0  9994
2 39500   0.0724 107.3887 0004409   3.7677 151.0592  1.00272290 45480
TDRS 12                 
1 39504U 14004A   26170.86988913 -.00000278  00000+0  00000+0 0  9994
2 39504   3.9804  19.1539 0003090 195.3817 325.6603  1.00266041 44307
ABS-2                   
1 39508U 14006A   26170.80383991 -.00000091  00000+0  00000+0 0  9992
2 39508   0.0169 326.7221 0003790 106.8867 198.7059  1.00270977 45305
ATHENA-FIDUS            
1 39509U 14006B   26170.54399547  .00000148  00000+0  00000+0 0  9990
2 39509   0.0353  93.7243 0001341   0.4060  47.2836  1.00273912 45112
TURKSAT 4A              
1 39522U 14007A   26170.75872066  .00000140  00000+0  00000+0 0  9993
2 39522   0.0680 287.9177 0001215  34.2647 260.9556  1.00274180 44995
EXPRESS-AT1             
1 39612U 14010A   26170.85152061  .00000016  00000+0  00000+0 0  9996
2 39612   0.2657  85.5564 0003811  44.4778 147.2143  1.00303889 44847
EXPRESS-AT2             
1 39613U 14010B   26170.40490929  .00000073  00000+0  00000+0 0  9999
2 39613   0.0164 350.9375 0000368 292.4926 185.9420  1.00271145 44523
AMAZONAS 4A             
1 39616U 14011A   26170.37925584 -.00000258  00000+0  00000+0 0  9995
2 39616   0.0546 175.8997 0003984 298.4121 215.8082  1.00269408 44733
ASTRA 5B                
1 39617U 14011B   26170.77336436  .00000131  00000+0  00000+0 0  9991
2 39617   0.0645 311.7480 0002089 114.0747 144.0785  1.00268563 44693
IRNSS-1B                
1 39635U 14017A   26170.76140735  .00000109  00000+0  00000+0 0  9996
2 39635  28.9179 240.3593 0023151 189.6008 167.3236  1.00277178 44812
LUCH-5V                 
1 39727U 14023A   26170.76914560 -.00000276  00000+0  00000+0 0  9996
2 39727   5.1398  69.7202 0001892  49.9743 159.9136  1.00273433 44384
KAZSAT-3                
1 39728U 14023B   26170.79686956  .00000055  00000+0  00000+0 0  9999
2 39728   0.0153  31.1388 0000327  31.8695 190.3838  1.00273999 42488
EUTELSAT 3B             
1 39773U 14030A   26170.78447693  .00000014  00000+0  00000+0 0  9994
2 39773   0.0686  22.8389 0004038  63.9718 106.6817  1.00271656 44096
ASIASAT 8 (AMOS-7)      
1 40107U 14046A   26170.82614531 -.00000339  00000+0  00000+0 0  9997
2 40107   0.0236  65.0430 0001373  20.6966 225.0244  1.00272818102175
ASIASAT 6               
1 40141U 14052A   26170.77417229 -.00000368  00000+0  00000+0 0  9993
2 40141   0.0366  83.1517 0000785  22.7653 200.6841  1.00269729 43102
OPTUS 10                
1 40146U 14054A   26169.96865086 -.00000154  00000+0  00000+0 0  9990
2 40146   0.0781  50.4612 0001967  35.8039 325.6614  1.00270780 43045
MEASAT-3B               
1 40147U 14054B   26170.73516891 -.00000247  00000+0  00000+0 0  9998
2 40147   0.0298  26.8562 0002963  62.5719 174.6844  1.00270395 42935
HIMAWARI-8              
1 40267U 14060A   26170.76933198 -.00000281  00000+0  00000+0 0  9992
2 40267   0.0163  46.0851 0001130  46.9314 232.5959  1.00270956 42783
IRNSS-1C                
1 40269U 14061A   26170.79126230 -.00000168  00000+0  00000+0 0  9993
2 40269   6.5240  88.8821 0022682   2.7462 184.1889  1.00268918 42714
INTELSAT 30 (IS-30)     
1 40271U 14062A   26170.24364323 -.00000157  00000+0  00000+0 0  9992
2 40271   0.0281  53.7801 0001240 330.6226 235.7245  1.00270952  6819
ARSAT 1                 
1 40272U 14062B   26170.37968918 -.00000266  00000+0  00000+0 0  9998
2 40272   0.0117 358.1505 0001738  84.7951 249.5311  1.00270262 42647
EUTELSAT 53A            
1 40277U 14064A   26170.61833024  .00000092  00000+0  00000+0 0  9997
2 40277   0.0181 325.4132 0000986 225.2170 352.8080  1.00271761 41594
